OBJECT_NAME,OBJECT_ID,EPOCH,MEAN_MOTION,ECCENTRICITY,INCLINATION,RA_OF_ASC_NODE,ARG_OF_PERICENTER,MEAN_ANOMALY,EPHEMERIS_TYPE,CLASSIFICATION_TYPE,NORAD_CAT_ID,ELEMENT_SET_NO,REV_AT_EPOCH,BSTAR,MEAN_MOTION_DOT,MEAN_MOTION_DDOT
COSMO-SKYMED 1,2007-023A,2026-06-07T12:14:51.109728,14.97057993,.0001229,97.8859,350.2858,80.2846,279.8514,0,U,31598,999,2834,.22554E-3,.2539E-4,0
COSMOS 2428,2007-029A,2026-06-07T12:22:14.143008,14.12930312,.000728,70.9375,14.7857,153.6592,206.4901,0,U,31792,999,97678,-.65719E-4,-.17E-5,0
SL-16 R/B,2007-029B,2026-06-07T07:18:01.996992,14.14849443,.0002242,70.9759,344.0048,258.5019,274.6445,0,U,31793,999,97804,.17858E-3,.297E-5,0
KORONAS-FOTON,2009-003A,2026-06-07T07:15:44.221824,15.45515649,.0010591,82.4292,182.5692,180.6124,179.5114,0,U,33504,999,95957,.2133E-3,.10291E-3,0
CZ-2C R/B,2011-030B,2026-06-06T10:43:04.964736,14.81445560,.00537251,97.8651,113.0273,62.2187,50.9381,0,U,37731,999,80323,.1912982E-3,.1481E-4,0
H-2A R/B,2012-025E,2026-06-07T04:32:06.352224,14.95660435,.0044383,98.4815,132.5108,21.3921,338.9139,0,U,38341,999,76159,.29791E-3,.3308E-4,0
SHIJIAN-16 (SJ-16),2013-057A,2026-06-07T12:29:21.831648,14.92594355,.0016961,74.9733,14.9923,253.2977,106.6350,0,U,39358,999,68490,.19081E-3,.1939E-4,0
SL-4 R/B,2014-021B,2026-06-07T00:25:20.157024,15.41737087,.009159,51.6056,260.5859,68.9631,292.1120,0,U,39679,999,67004,.30255E-3,.14688E-3,0
ALOS-2,2014-029A,2026-06-07T12:50:49.932096,14.79469439,.0001668,97.9210,255.8375,90.1419,269.9984,0,U,39766,999,65015,.20312E-3,.1466E-4,0
YAOGAN-29,2015-069A,2026-06-07T12:42:59.108256,14.83078832,.0002987,98.0031,187.1477,69.0165,291.1368,0,U,41038,999,56919,.81758E-4,.611E-5,0
ASTRO-H (HITOMI),2016-012A,2026-06-07T06:06:06.534720,15.10468600,.0009582,30.9975,138.3356,154.3484,205.7631,0,U,41337,999,56578,.157E-3,.2746E-4,0
HXMT (HUIYAN),2017-034A,2026-06-07T12:43:52.629600,15.18408036,.0030167,43.0131,236.8110,83.3579,277.0701,0,U,42758,999,49619,.25519E-3,.5166E-4,0
SAOCOM 1A,2018-076A,2026-06-07T11:34:06.738816,14.82168683,.0001517,97.8885,345.3715,80.3799,279.7585,0,U,43641,999,41466,.10651E-3,.796E-5,0
H-2A R/B,2018-084L,2026-06-07T09:55:03.357120,15.44777303,.0024335,98.8587,35.1697,73.2957,287.0955,0,U,43682,999,41961,.43797E-3,.20634E-3,0
SAOCOM 1B,2020-059A,2026-06-07T12:19:08.516928,14.82162714,.0001483,97.8888,344.4969,76.4799,283.6580,0,U,46265,999,31205,.27066E-4,.163E-5,0
CSS (TIANHE),2021-035A,2026-06-07T07:31:57.001152,15.60382427,.0008749,41.4697,22.0692,0.1794,359.9047,0,U,48274,999,29162,.14046E-3,.1155E-3,0
COSMOS 2550,2021-056A,2026-06-07T12:05:21.007968,15.33739752,.0008698,67.1418,129.1976,266.3618,93.6542,0,U,48865,999,27723,.19056E-3,.6066E-4,0
CZ-2C R/B,2022-058K,2026-06-07T10:50:06.016992,15.61206771,.0033049,50.1841,214.1517,227.1063,132.7134,0,U,52794,999,22412,.41128E-3,.36142E-3,0
CZ-2C R/B,2022-132E,2026-06-07T06:41:59.936352,15.70355633,.0017024,97.2911,164.8696,114.4959,245.8081,0,U,54039,999,20439,.46193E-3,.5687E-3,0
GSLV R/B,2022-138AN,2026-06-07T05:25:41.094048,14.97214236,.0021214,87.3804,136.3299,178.5904,181.5391,0,U,54149,999,19732,.27063E-3,.3172E-4,0
XRISM,2023-137A,2026-06-07T10:09:20.510784,15.12380467,.0007902,31.0024,62.8447,227.1437,132.8538,0,U,57800,999,15138,.29186E-3,.5292E-4,0
ACS3,2024-077B,2026-06-07T05:27:45.085824,13.93813777,.0048622,97.1692,79.2400,67.8500,292.7816,0,U,59588,999,10665,.30591E-1,.40893E-3,0
CZ-8A R/B,2025-231K,2026-06-07T11:30:13.732704,14.30152309,.011648,50.0042,80.6173,189.8219,170.0418,0,U,66004,999,3355,.50635E-4,-.22E-6,0
SZ-21 MODULE,2025-246C,2026-06-06T07:35:07.958112,15.75457395,.00071848,41.4728,14.9847,283.9983,76.0062,0,U,66515,999,3202,.36001641E-3,.56445E-3,0
