COSMO-SKYMED 1          
1 31598U 07023A   26158.51031377  .00002539  00000+0  22554-3 0  9996
2 31598  97.8859 350.2858 0001229  80.2846 279.8514 14.97057993 28344
COSMOS 2428             
1 31792U 07029A   26158.51544147 -.00000170  00000+0 -65719-4 0  9994
2 31792  70.9375  14.7857 0007280 153.6592 206.4901 14.12930312976780
SL-16 R/B               
1 31793U 07029B   26158.30418978  .00000297  00000+0  17858-3 0  9992
2 31793  70.9759 344.0048 0002242 258.5019 274.6445 14.14849443978047
KORONAS-FOTON           
1 33504U 09003A   26158.30259516  .00010291  00000+0  21330-3 0  9994
2 33504  82.4292 182.5692 0010591 180.6124 179.5114 15.45515649959573
CZ-2C R/B               
1 37731U 11030B   26157.44658524  .00001481  00000+0  19130-3 0  9995
2 37731  97.8651 113.0273 0053725  62.2187  50.9381 14.81445560803234
H-2A R/B                
1 38341U 12025E   26158.18896241  .00003308  00000+0  29791-3 0  9994
2 38341  98.4815 132.5108 0044383  21.3921 338.9139 14.95660435761593
SHIJIAN-16 (SJ-16)      
1 39358U 13057A   26158.52039157  .00001939  00000+0  19081-3 0  9991
2 39358  74.9733  14.9923 0016961 253.2977 106.6350 14.92594355684904
SL-4 R/B                
1 39679U 14021B   26158.01759441  .00014688  00000+0  30255-3 0  9999
2 39679  51.6056 260.5859 0091590  68.9631 292.1120 15.41737087670048
ALOS-2                  
1 39766U 14029A   26158.53530014  .00001466  00000+0  20312-3 0  9997
2 39766  97.9210 255.8375 0001668  90.1419 269.9984 14.79469439650151
YAOGAN-29               
1 41038U 15069A   26158.52985079  .00000611  00000+0  81758-4 0  9994
2 41038  98.0031 187.1477 0002987  69.0165 291.1368 14.83078832569191
ASTRO-H (HITOMI)        
1 41337U 16012A   26158.25424230  .00002746  00000+0  15700-3 0  9996
2 41337  30.9975 138.3356 0009582 154.3484 205.7631 15.10468600565781
HXMT (HUIYAN)           
1 42758U 17034A   26158.53047025  .00005166  00000+0  25519-3 0  9991
2 42758  43.0131 236.8110 0030167  83.3579 277.0701 15.18408036496192
SAOCOM 1A               
1 43641U 18076A   26158.48202244  .00000796  00000+0  10651-3 0  9995
2 43641  97.8885 345.3715 0001517  80.3799 279.7585 14.82168683414664
H-2A R/B                
1 43682U 18084L   26158.41323330  .00020634  00000+0  43797-3 0  9992
2 43682  98.8587  35.1697 0024335  73.2957 287.0955 15.44777303419619
SAOCOM 1B               
1 46265U 20059A   26158.51329302  .00000163  00000+0  27066-4 0  9990
2 46265  97.8888 344.4969 0001483  76.4799 283.6580 14.82162714312059
CSS (TIANHE)            
1 48274U 21035A   26158.31385418  .00011550  00000+0  14046-3 0  9990
2 48274  41.4697  22.0692 0008749   0.1794 359.9047 15.60382427291623
COSMOS 2550             
1 48865U 21056A   26158.50371537  .00006066  00000+0  19056-3 0  9999
2 48865  67.1418 129.1976 0008698 266.3618  93.6542 15.33739752277233
CZ-2C R/B               
1 52794U 22058K   26158.45145853  .00036142  00000+0  41128-3 0  9995
2 52794  50.1841 214.1517 0033049 227.1063 132.7134 15.61206771224127
CZ-2C R/B               
1 54039U 22132E   26158.27916593  .00056870  00000+0  46193-3 0  9996
2 54039  97.2911 164.8696 0017024 114.4959 245.8081 15.70355633204393
GSLV R/B                
1 54149U 22138AN  26158.22617007  .00003172  00000+0  27063-3 0  9999
2 54149  87.3804 136.3299 0021214 178.5904 181.5391 14.97214236197321
XRISM                   
1 57800U 23137A   26158.42315406  .00005292  00000+0  29186-3 0  9999
2 57800  31.0024  62.8447 0007902 227.1437 132.8538 15.12380467151382
ACS3                    
1 59588U 24077B   26158.22760516  .00040893  00000+0  30591-1 0  9998
2 59588  97.1692  79.2400 0048622  67.8500 292.7816 13.93813777106653
CZ-8A R/B               
1 66004U 25231K   26158.47932561 -.00000022  00000+0  50635-4 0  9995
2 66004  50.0042  80.6173 0116480 189.8219 170.0418 14.30152309 33557
SZ-21 MODULE            
1 66515U 25246C   26157.31606433  .00056445  00000+0  36002-3 0  9996
2 66515  41.4728  14.9847 0007184 283.9983  76.0062 15.75457395 32025
